From:	Horizons Ephemeris System <horizons@ssd.jpl.nasa.gov>
Sent:	Friday, December 4, 2020 12:35 PM
Subject:	[Horizons] MAJOR BODY #C(usr={-90.,-89.9,.600^G}@301)_T(301) (1/1)

 Automated mail xmit by MAIL_REQUEST, PID= 31465 Fri Dec  4 10:34:35 2020
++++++++++++++++++++++++++++++++ (part 1 of 1)  +++++++++++++++++++++++++++++++
*******************************************************************************
 Revised: July 31, 2013             Moon / (Earth)                          301
 
 GEOPHYSICAL DATA (updated 2018-Aug-15):
  Vol. mean radius, km  = 1737.53+-0.03    Mass, x10^22 kg       =    7.349
  Radius (gravity), km  = 1738.0           Surface emissivity    =    0.92
  Radius (IAU), km      = 1737.4           GM, km^3/s^2          = 4902.800066
  Density, g/cm^3       =    3.3437        GM 1-sigma, km^3/s^2  =  +-0.0001  
  V(1,0)                =   +0.21          Surface accel., m/s^2 =    1.62
  Earth/Moon mass ratio = 81.3005690769    Farside crust. thick. = ~80 - 90 km
  Mean crustal density  = 2.97+-.07 g/cm^3 Nearside crust. thick.= 58+-8 km 
  Heat flow, Apollo 15  = 3.1+-.6 mW/m^2   Mean angular diameter = 31'05.2"
  Heat flow, Apollo 17  = 2.2+-.5 mW/m^2   Sid. rot. rate, rad/s = 0.0000026617
  Geometric Albedo      = 0.12             Mean solar day        = 29.5306 d
  Obliquity to orbit    = 6.67 deg         Orbit period          = 27.321582 d
  Semi-major axis, a    = 384400 km        Eccentricity          = 0.05490
  Mean motion, rad/s    = 2.6616995x10^-6  Inclination           = 5.145 deg
  Apsidal period        = 3231.50 d        Nodal period          = 6798.38 d
                                 Perihelion  Aphelion    Mean
  Solar Constant (W/m^2)         1414+-7     1323+-7     1368+-7
  Maximum Planetary IR (W/m^2)   1314        1226        1268
  Minimum Planetary IR (W/m^2)      5.2         5.2         5.2
********************************************************************************
 
 
*******************************************************************************
Ephemeris / MAIL_REQUEST Fri Dec  4 10:34:34 2020 Pasadena, USA  / Horizons
*******************************************************************************
Target body name: Moon (301)                      {source: DE431mx}
Center body name: Moon (301)                      {source: DE431mx}
Center-site name: (user defined site below)
*******************************************************************************
Start time      : A.D. 2020-Jan-01 00:00:00.0000 TDB
Stop  time      : A.D. 2039-Jan-01 00:00:00.0000 TDB
Step-size       : 10000 steps
*******************************************************************************
Center geodetic : 270.000000,-89.900000,0.6000000 {E-lon(deg),Lat(deg),Alt(km)}
Center cylindric: 270.000000,3.03338070,-1737.997 {E-lon(deg),Dxy(km),Dz(km)}
Center pole/equ : IAU_MOON                        {East-longitude positive}
Center radii    : 1737.4 x 1737.4 x 1737.4 km     {Equator, meridian, pole}    
Output units    : KM-S
Output type     : GEOMETRIC cartesian states
Output format   : 3 (position, velocity, LT, range, range-rate)
Reference frame : Ecliptic of J2000.0
*******************************************************************************
JDTDB
   X     Y     Z
   VX    VY    VZ
   LT    RG    RR
*******************************************************************************
$$SOE
2465428.620000000 = A.D. 2038-Jan-05 02:52:48.0000 TDB 
  -4.729717063500686E+01 -1.445812352868541E+01  1.737296157917226E+03
  -2.221945286985341E-06 -7.571609131751044E-06 -1.235039774537955E-07
   5.797343974543885E-03  1.738000000000001E+03 -2.963153233202615E-22
2465429.314000000 = A.D. 2038-Jan-05 19:32:09.6000 TDB 
  -4.739380673255412E+01 -1.491949101965895E+01  1.737289623485708E+03
  -9.959723858853618E-07 -7.788503770910408E-06 -9.405653071618345E-08
   5.797343974543884E-03  1.738000000000000E+03 -5.302484733099416E-22
2465430.008000000 = A.D. 2038-Jan-06 12:11:31.2000 TDB 
  -4.741616754143696E+01 -1.538866998236097E+01  1.737284920757634E+03
   2.521544382435478E-07 -7.831520628671696E-06 -6.248859241653094E-08
   5.797343974543885E-03  1.738000000000001E+03 -7.017994499690402E-22
2465430.702000000 = A.D. 2038-Jan-07 04:50:52.8000 TDB 
  -4.736353281309168E+01 -1.585512817906101E+01  1.737282162076699E+03
   1.501974619937026E-06 -7.697267930476258E-06 -2.929998740654313E-08
   5.797343974543886E-03  1.738000000000000E+03 -4.561696424798762E-22
2465431.396000000 = A.D. 2038-Jan-07 21:30:14.4000 TDB 
  -4.723644664170247E+01 -1.630816165165834E+01  1.737281428546397E+03
   2.731686369216562E-06 -7.383491912504590E-06  4.964064898651596E-09
   5.797343974543886E-03  1.738000000000000E+03 -4.464224278969729E-22
2465432.090000000 = A.D. 2038-Jan-08 14:09:36.0000 TDB 
  -4.703681217013312E+01 -1.673698066903228E+01  1.737282766788112E+03
   3.917707531785359E-06 -6.889713975971903E-06  3.969616518248285E-08
   5.797343974543885E-03  1.738000000000000E+03  7.017994499690404E-22
2465432.784000000 = A.D. 2038-Jan-09 06:48:57.6000 TDB 
  -4.676800489206303E+01 -1.713084136899579E+01  1.737286184827476E+03
   5.034510588540990E-06 -6.218102147785687E-06  7.421500006742071E-08
   5.797343974543885E-03  1.738000000000000E+03  3.742930399834882E-22
2465433.478000000 = A.D. 2038-Jan-09 23:28:19.2000 TDB 
  -4.643498553562554E+01 -1.747923404485539E+01  1.737291647506403E+03
   6.054812019282105E-06 -5.374468697535642E-06  1.077617063168613E-07
   5.797343974543885E-03  1.738000000000001E+03 -2.495286933223254E-22
2465434.172000000 = A.D. 2038-Jan-10 16:07:40.8000 TDB 
  -4.604438981616358E+01 -1.777213180441868E+01  1.737299071978566E+03
   6.950157878807823E-06 -4.369263265229494E-06  1.395065823305953E-07
   5.797343974543886E-03  1.738000000000001E+03 -4.678662999793602E-23
2465434.866000000 = A.D. 2038-Jan-11 08:47:02.4000 TDB 
  -4.560457113931781E+01 -1.800029515570668E+01  1.737308323949871E+03
   7.691903347669933E-06 -3.218421910388640E-06  1.685673205244089E-07
   5.797343974543886E-03  1.738000000000000E+03  0.000000000000000E+00
2465435.560000000 = A.D. 2038-Jan-12 01:26:24.0000 TDB 
  -4.512557384368537E+01 -1.815561980186374E+01  1.737319215358793E+03
   8.252538278196120E-06 -1.943938245637919E-06  1.940386768213206E-07
   5.797343974543885E-03  1.738000000000001E+03  0.000000000000000E+00
2465436.254000000 = A.D. 2038-Jan-12 18:05:45.6000 TDB 
  -4.461901876406252E+01 -1.823150743980841E+01  1.737331504146807E+03
   8.607267721436055E-06 -5.740430553332505E-07  2.150321736780165E-07
   5.797343974543885E-03  1.738000000000000E+03 -3.431019533181975E-22
2465436.948000000 = A.D. 2038-Jan-13 10:45:07.2000 TDB 
  -4.409788947720505E+01 -1.822323348049565E+01  1.737344896646942E+03
   8.735720480885730E-06  8.570880692171658E-07  2.307231874581578E-07
   5.797343974543886E-03  1.738000000000001E+03 -5.302484733099415E-22
2465437.642000000 = A.D. 2038-Jan-14 03:24:28.8000 TDB 
  -4.357621601259635E+01 -1.812828203580330E+01  1.737359052927303E+03
   8.623633942759332E-06  2.310136421735848E-06  2.404017404427247E-07
   5.797343974543886E-03  1.738000000000001E+03  3.119108666529068E-23
2465438.336000000 = A.D. 2038-Jan-14 20:03:50.4000 TDB 
  -4.306866229987473E+01 -1.794661773139887E+01  1.737373595183173E+03
   8.264353035817823E-06  3.741939449557174E-06  2.435226298332334E-07
   5.797343974543886E-03  1.738000000000001E+03 -1.559554333264534E-22
2465439.030000000 = A.D. 2038-Jan-15 12:43:12.0000 TDB 
  -4.259003325208349E+01 -1.768086612283639E+01  1.737388118999533E+03
   7.659987157591497E-06  5.107225611834428E-06  2.397502754273372E-07
   5.797343974543885E-03  1.738000000000001E+03  6.550128199711043E-22
2465439.724000000 = A.D. 2038-Jan-16 05:22:33.6000 TDB 
  -4.215472614945632E+01 -1.733637962704688E+01  1.737402207033447E+03
   6.822091556714298E-06  6.360676643159858E-06  2.289938994551200E-07
   5.797343974543884E-03  1.738000000000000E+03  1.029305859954593E-21
2465440.418000000 = A.D. 2038-Jan-16 22:01:55.2000 TDB 
  -4.177615793228226E+01 -1.692117353946014E+01  1.737415444421531E+03
   5.771777340931551E-06  7.459171860936064E-06  2.114293529758433E-07
   5.797343974543885E-03  1.738000000000000E+03 -3.119108666529069E-23
2465441.112000000 = A.D. 2038-Jan-17 14:41:16.8000 TDB 
  -4.146620432917234E+01 -1.644572621622262E+01  1.737427435027937E+03
   4.539203448724215E-06  8.364045188208611E-06  1.875050021393467E-07
   5.797343974543885E-03  1.738000000000001E+03 -1.278834553276918E-21
2465441.806000000 = A.D. 2038-Jan-18 07:20:38.4000 TDB 
  -4.123468789648152E+01 -1.592264797576092E+01  1.737437817533485E+03
   3.162459494764725E-06  9.043177666954033E-06  1.579304663775522E-07
   5.797343974543884E-03  1.738000000000000E+03 -1.559554333264534E-22
2465442.500000000 = A.D. 2038-Jan-19 00:00:00.0000 TDB 
  -4.108894981866638E+01 -1.536623370738778E+01  1.737446280339179E+03
   1.685904370624667E-06  9.472757545787651E-06  1.236485115060508E-07
   5.797343974543884E-03  1.738000000000000E+03  1.606340963262470E-21
2465443.194000000 = A.D. 2038-Jan-19 16:39:21.6000 TDB 
  -4.103353487938963E+01 -1.479192354836766E+01  1.737452574320532E+03
   1.580757294309316E-07  9.638565776547963E-06  8.579188649111403E-08
   5.797343974543886E-03  1.738000000000001E+03  7.953727099649123E-22
2465443.888000000 = A.D. 2038-Jan-20 09:18:43.2000 TDB 
  -4.107001087020169E+01 -1.421570338799120E+01  1.737456522616986E+03
  -1.370675411614147E-06  9.536684366978292E-06  4.562820489570332E-08
   5.797343974543885E-03  1.738000000000001E+03 -4.600685283130375E-22
2465444.581999999 = A.D. 2038-Jan-21 01:58:04.8000 TDB 
  -4.119693365475089E+01 -1.365348166218428E+01  1.737458026858763E+03
  -2.850646775750003E-06  9.173574442061142E-06  4.496985945490881E-09
   5.797343974543884E-03  1.738000000000000E+03  1.389952799522016E-21
